LANDSAT 9               
1 49260U 21088A   24044.46753903  .00000997  00000+0  23131-3 0  9998
2 49260  98.2019 116.1244 0000995 107.6847 252.4460 14.57125650126533
